{
  "type": "FeatureCollection",
  "features": [
    {
      "type": "Feature",
      "properties": {
        "norad_id": 39773,
        "name": "EUTELSAT 3B",
        "group": "eutelsat",
        "lat": 0.06288654883568201,
        "lon": 31.250228505847076,
        "alt_km": 35805.26124252381,
        "timestamp": "2025-12-09T20:37:08.953293+00:00",
        "meta_object_name": "EUTELSAT 3B",
        "meta_object_id": "2014-030A",
        "meta_epoch": "2025-12-09T13:35:15.098208",
        "meta_mean_motion": 1.00271476,
        "meta_eccentricity": 0.00047385,
        "meta_inclination": 0.0629,
        "meta_ra_of_asc_node": 341.9539,
        "meta_arg_of_pericenter": 246.3265,
        "meta_mean_anomaly": 57.1942,
        "meta_ephemeris_type": 0,
        "meta_classification_type": "U",
        "meta_norad_cat_id": 39773,
        "meta_element_set_no": 999,
        "meta_rev_at_epoch": 4216,
        "meta_bstar": 0,
        "meta_mean_motion_dot": 2.2e-07,
        "meta_mean_motion_ddot": 0,
        "tle_line1": "1 39773U 14030A   25343.56614697  .00000022  00000+0  00000+0 0  9990",
        "tle_line2": "2 39773   0.0629 341.9539 0004738 246.3265  57.1942  1.00271476 42161"
      },
      "geometry": {
        "type": "Point",
        "coordinates": [
          31.250228505847076,
          0.06288654883568201
        ]
      }
    },
    {
      "type": "Feature",
      "properties": {
        "norad_id": 40425,
        "name": "EUTELSAT 115 WEST B",
        "group": "eutelsat",
        "lat": 0.010025690357513726,
        "lon": -86.77704901084769,
        "alt_km": 35788.34906672126,
        "timestamp": "2025-12-09T20:37:08.953304+00:00",
        "meta_object_name": "EUTELSAT 115 WEST B",
        "meta_object_id": "2015-010B",
        "meta_epoch": "2025-12-09T10:03:18.437760",
        "meta_mean_motion": 1.00267856,
        "meta_eccentricity": 2.833e-05,
        "meta_inclination": 0.0086,
        "meta_ra_of_asc_node": 153.759,
        "meta_arg_of_pericenter": 289.3308,
        "meta_mean_anomaly": 31.2487,
        "meta_ephemeris_type": 0,
        "meta_classification_type": "U",
        "meta_norad_cat_id": 40425,
        "meta_element_set_no": 999,
        "meta_rev_at_epoch": 3949,
        "meta_bstar": 0,
        "meta_mean_motion_dot": -2.2e-07,
        "meta_mean_motion_ddot": 0,
        "tle_line1": "1 40425U 15010B   25343.41896340 -.00000022  00000+0  00000+0 0  9997",
        "tle_line2": "2 40425   0.0086 153.7590 0000283 289.3308  31.2487  1.00267856 39492"
      },
      "geometry": {
        "type": "Point",
        "coordinates": [
          -86.77704901084769,
          0.010025690357513726
        ]
      }
    },
    {
      "type": "Feature",
      "properties": {
        "norad_id": 40875,
        "name": "EUTELSAT 8 WEST B",
        "group": "eutelsat",
        "lat": 0.03253302718742221,
        "lon": 20.183740267719152,
        "alt_km": 35795.07831499773,
        "timestamp": "2025-12-09T20:37:08.953316+00:00",
        "meta_object_name": "EUTELSAT 8 WEST B",
        "meta_object_id": "2015-039B",
        "meta_epoch": "2025-12-09T13:31:52.921344",
        "meta_mean_motion": 1.00271493,
        "meta_eccentricity": 0.00041583,
        "meta_inclination": 0.0645,
        "meta_ra_of_asc_node": 0.9958,
        "meta_arg_of_pericenter": 258.725,
        "meta_mean_anomaly": 13.8173,
        "meta_ephemeris_type": 0,
        "meta_classification_type": "U",
        "meta_norad_cat_id": 40875,
        "meta_element_set_no": 999,
        "meta_rev_at_epoch": 3775,
        "meta_bstar": 0,
        "meta_mean_motion_dot": -6.3e-07,
        "meta_mean_motion_ddot": 0,
        "tle_line1": "1 40875U 15039B   25343.56380696 -.00000063  00000+0  00000+0 0  9990",
        "tle_line2": "2 40875   0.0645   0.9958 0004158 258.7250  13.8173  1.00271493 37751"
      },
      "geometry": {
        "type": "Point",
        "coordinates": [
          20.183740267719152,
          0.03253302718742221
        ]
      }
    },
    {
      "type": "Feature",
      "properties": {
        "norad_id": 41310,
        "name": "EUTELSAT 9B",
        "group": "eutelsat",
        "lat": 0.0035774434087832083,
        "lon": 37.18286120207986,
        "alt_km": 35799.84589829653,
        "timestamp": "2025-12-09T20:37:08.953327+00:00",
        "meta_object_name": "EUTELSAT 9B",
        "meta_object_id": "2016-005A",
        "meta_epoch": "2025-12-09T06:50:38.880672",
        "meta_mean_motion": 1.00272177,
        "meta_eccentricity": 0.000488,
        "meta_inclination": 0.0363,
        "meta_ra_of_asc_node": 53.41,
        "meta_arg_of_pericenter": 211.4344,
        "meta_mean_anomaly": 285.108,
        "meta_ephemeris_type": 0,
        "meta_classification_type": "U",
        "meta_norad_cat_id": 41310,
        "meta_element_set_no": 999,
        "meta_rev_at_epoch": 3621,
        "meta_bstar": 0,
        "meta_mean_motion_dot": 6.4e-07,
        "meta_mean_motion_ddot": 0,
        "tle_line1": "1 41310U 16005A   25343.28517223  .00000064  00000+0  00000+0 0  9996",
        "tle_line2": "2 41310   0.0363  53.4100 0004880 211.4344 285.1080  1.00272177 36218"
      },
      "geometry": {
        "type": "Point",
        "coordinates": [
          37.18286120207986,
          0.0035774434087832083
        ]
      }
    },
    {
      "type": "Feature",
      "properties": {
        "norad_id": 41382,
        "name": "EUTELSAT 65 WEST A",
        "group": "eutelsat",
        "lat": -0.04141995648071408,
        "lon": -37.05167817569123,
        "alt_km": 35779.97055531338,
        "timestamp": "2025-12-09T20:37:08.953339+00:00",
        "meta_object_name": "EUTELSAT 65 WEST A",
        "meta_object_id": "2016-014A",
        "meta_epoch": "2025-12-09T12:38:04.428096",
        "meta_mean_motion": 1.0027273,
        "meta_eccentricity": 0.00026485,
        "meta_inclination": 0.0502,
        "meta_ra_of_asc_node": 5.1997,
        "meta_arg_of_pericenter": 259.4638,
        "meta_mean_anomaly": 298.1642,
        "meta_ephemeris_type": 0,
        "meta_classification_type": "U",
        "meta_norad_cat_id": 41382,
        "meta_element_set_no": 999,
        "meta_rev_at_epoch": 3563,
        "meta_bstar": 0,
        "meta_mean_motion_dot": -2.74e-06,
        "meta_mean_motion_ddot": 0,
        "tle_line1": "1 41382U 16014A   25343.52644014 -.00000274  00000+0  00000+0 0  9995",
        "tle_line2": "2 41382   0.0502   5.1997 0002648 259.4638 298.1642  1.00272730 35636"
      },
      "geometry": {
        "type": "Point",
        "coordinates": [
          -37.05167817569123,
          -0.04141995648071408
        ]
      }
    },
    {
      "type": "Feature",
      "properties": {
        "norad_id": 41589,
        "name": "EUTELSAT 117 WEST B",
        "group": "eutelsat",
        "lat": 0.006702702448661227,
        "lon": -88.8603103540365,
        "alt_km": 35786.17573549638,
        "timestamp": "2025-12-09T20:37:08.953352+00:00",
        "meta_object_name": "EUTELSAT 117 WEST B",
        "meta_object_id": "2016-038B",
        "meta_epoch": "2025-12-09T11:12:09.715968",
        "meta_mean_motion": 1.00274699,
        "meta_eccentricity": 2.38e-05,
        "meta_inclination": 0.0078,
        "meta_ra_of_asc_node": 125.2291,
        "meta_arg_of_pericenter": 302.5176,
        "meta_mean_anomaly": 61.7595,
        "meta_ephemeris_type": 0,
        "meta_classification_type": "U",
        "meta_norad_cat_id": 41589,
        "meta_element_set_no": 999,
        "meta_rev_at_epoch": 3476,
        "meta_bstar": 0,
        "meta_mean_motion_dot": -1e-07,
        "meta_mean_motion_ddot": 0,
        "tle_line1": "1 41589U 16038B   25343.46677912 -.00000010  00000+0  00000+0 0  9994",
        "tle_line2": "2 41589   0.0078 125.2291 0000238 302.5176  61.7595  1.00274699 34764"
      },
      "geometry": {
        "type": "Point",
        "coordinates": [
          -88.8603103540365,
          0.006702702448661227
        ]
      }
    },
    {
      "type": "Feature",
      "properties": {
        "norad_id": 42741,
        "name": "EUTELSAT 172B",
        "group": "eutelsat",
        "lat": -0.002171992747534547,
        "lon": -159.868873997439,
        "alt_km": 35786.76868989376,
        "timestamp": "2025-12-09T20:37:08.953368+00:00",
        "meta_object_name": "EUTELSAT 172B",
        "meta_object_id": "2017-029B",
        "meta_epoch": "2025-12-09T12:37:00.989760",
        "meta_mean_motion": 1.00269936,
        "meta_eccentricity": 1.692e-05,
        "meta_inclination": 0.012,
        "meta_ra_of_asc_node": 91.0922,
        "meta_arg_of_pericenter": 213.9404,
        "meta_mean_anomaly": 134.7439,
        "meta_ephemeris_type": 0,
        "meta_classification_type": "U",
        "meta_norad_cat_id": 42741,
        "meta_element_set_no": 999,
        "meta_rev_at_epoch": 3182,
        "meta_bstar": 0,
        "meta_mean_motion_dot": -4e-08,
        "meta_mean_motion_ddot": 0,
        "tle_line1": "1 42741U 17029B   25343.52570590 -.00000004  00000+0  00000+0 0  9990",
        "tle_line2": "2 42741   0.0120  91.0922 0000169 213.9404 134.7439  1.00269936 31826"
      },
      "geometry": {
        "type": "Point",
        "coordinates": [
          -159.868873997439,
          -0.002171992747534547
        ]
      }
    }
  ]
}